KUZGTU 1 (RS47S)        
1 57217U 23091AV  26201.25312941  .00006532  00000+0  22364-3 0  9990
2 57217  97.5041 266.0832 0009535 347.5595  12.5409 15.30535335169434
SONATE-2                
1 59112U 24043Q   26201.17360806  .00026687  00000+0  31735-3 0  9993
2 59112  97.5564 353.6627 0006604  90.5198 269.6816 15.61100593133035
MESAT1                  
1 60209U 24125G   26201.09773864  .00046122  00000+0  43469-3 0  9999
2 60209  97.2242  59.4134 0010702  97.3203 262.9274 15.66877080114719
OOV-CUBE (TUBSAT-30)    
1 60240U 24128F   26201.25711982  .00001037  00000+0  91433-4 0  9999
2 60240  61.9942 110.2494 0040455 141.1428 219.2584 15.02886018111086
COLIBRI-S (RS67S)       
1 61746U 24199M   26201.27929226  .00013651  00000+0  25359-3 0  9991
2 61746  97.2939  75.4579 0009498 145.3418 214.8454 15.48986533142533
HORS 3 (RS81S)          
1 61753U 24199U   26201.27080315  .00024063  00000+0  33211-3 0  9991
2 61753  97.2921  77.8171 0007693 140.6644 219.5172 15.57151007142708
HORS 4 (RS82S)          
1 61754U 24199V   26201.25049433  .00034655  00000+0  38595-3 0  9994
2 61754  97.2861  79.2322 0007404 134.2519 225.9349 15.62742527142803
SIT-2086                
1 61764U 24199AF  26201.28925200  .00023986  00000+0  35473-3 0  9990
2 61764  97.2881  78.1972 0008588 129.8299 230.3712 15.55265801139575
HYPERVIEW 1G (RS66S)    
1 61772U 24199AP  26201.09883610  .00202082  00000+0  76700-3 0  9990
2 61772  97.2786  82.7337 0008192 139.5266 220.6617 15.87065401139875
ALTAIR (RS65S)          
1 61779U 24199AW  26201.24320464  .00006066  00000+0  16637-3 0  9994
2 61779  97.2985  70.3818 0012604 178.1648 181.9646 15.37569936142193
ASRTU-1 (AO-123)        
1 61781U 24199AY  26201.26150944  .00004241  00000+0  12261-3 0  9995
2 61781  97.2956  69.6366 0013564 182.0291 178.0900 15.36096647139006
SAMSAT-IONOSPHERE (RS7*)
1 61784U 24199BB  26201.11337853  .00031449  00000+0  38253-3 0  9997
2 61784  97.2885  77.8369 0009714 144.9325 215.2574 15.60441528142690
RTU MIREA 1 (RS51S)     
1 61785U 24199BC  26201.24848114  .00042257  00000+0  43466-3 0  9990
2 61785  97.2870  78.9968 0009746 140.0151 220.1828 15.64710324139635
TEVEL2-4                
1 63213U 25052D   26201.16378951  .00010365  00000+0  30102-3 0  9993
2 63213  97.3852  97.6288 0003112  41.9336 318.2146 15.35673230 75174
TEVEL2-5                
1 63214U 25052E   26200.60165345  .00010499  00000+0  30684-3 0  9996
2 63214  97.3852  97.0033 0003191  45.3967 314.7537 15.35471509 75082
TEVEL2-6                
1 63215U 25052F   26200.67989982  .00009969  00000+0  29179-3 0  9992
2 63215  97.3856  97.0665 0003265  47.0245 313.1272 15.35437175 75099
TEVEL2-1                
1 63217U 25052H   26201.17701522  .00010109  00000+0  30116-3 0  9993
2 63217  97.3829  97.1489 0003820  49.4597 310.6978 15.34874825 75157
TEVEL2-3                
1 63218U 25052J   26201.17037093  .00010057  00000+0  29902-3 0  9992
2 63218  97.3838  97.1684 0003663  50.0239 310.1326 15.34938148 75152
TEVEL2-2                
1 63219U 25052K   26200.98152583  .00010142  00000+0  30206-3 0  9997
2 63219  97.3829  96.9562 0003929  49.9318 310.2269 15.34881558 75121
OTP-2                   
1 63235U 25052AB  26200.26460893  .00003412  00000+0  14216-3 0  9997
2 63235  97.3824  92.2179 0007980  59.8339 300.3688 15.24366519 74758
TEVEL2-9                
1 63237U 25052AD  26200.21882993  .00008721  00000+0  27749-3 0  9996
2 63237  97.3893  95.4966 0007321  45.4826 314.7014 15.32806992 74931
TEVEL2-7                
1 63238U 25052AE  26200.46202924  .00008616  00000+0  27686-3 0  9997
2 63238  97.3895  95.6412 0007412  45.1189 315.0654 15.32492190 74960
TEVEL2-8                
1 63239U 25052AF  26200.20940773  .00008420  00000+0  27078-3 0  9999
2 63239  97.3897  95.3655 0007477  46.6510 313.5354 15.32473641 74920
INNOSAT 16 (RS92S7)     
1 64878U 25155C   26201.19007842  .00003257  00000+0  13022-3 0  9990
2 64878  97.4589 168.2246 0012356  73.4920 286.7674 15.25770231 85701
GEOSCAN 6 (RS92S6)      
1 64879U 25155D   26201.19961174  .00006068  00000+0  20678-3 0  9996
2 64879  97.4579 169.8973 0009767  68.0571 292.1707 15.30712642 85817
GEOSCAN 1 (RS92S1)      
1 64880U 25155E   26201.25388457  .00006521  00000+0  21760-3 0  9999
2 64880  97.4575 170.1300 0009677  68.1043 292.1226 15.31365674 85837
239ALFEROV (RS61S)      
1 64881U 25155F   26201.17406636  .00008403  00000+0  25955-3 0  9992
2 64881  97.4574 170.7268 0009394  68.3086 291.9156 15.33755004 85865
GEOSCAN 2 (RS92S2)      
1 64890U 25155Q   26201.24190740  .00006217  00000+0  20599-3 0  9996
2 64890  97.4574 170.2831 0008738  58.3874 301.8219 15.31622827 85844
GEOSCAN 5 (RS92S5)      
1 64891U 25155R   26201.22162686  .00008417  00000+0  25755-3 0  9996
2 64891  97.4568 170.9247 0008457  73.2386 286.9784 15.34059282 85884
GEOSCAN 4 (RS92S4)      
1 64892U 25155S   26201.20233657  .00008823  00000+0  26842-3 0  9991
2 64892  97.4572 170.9638 0008355  73.7092 286.5069 15.34229613 85889
