OBJECT_NAME,OBJECT_ID,EPOCH,MEAN_MOTION,ECCENTRICITY,INCLINATION,RA_OF_ASC_NODE,ARG_OF_PERICENTER,MEAN_ANOMALY,EPHEMERIS_TYPE,CLASSIFICATION_TYPE,NORAD_CAT_ID,ELEMENT_SET_NO,REV_AT_EPOCH,BSTAR,MEAN_MOTION_DOT,MEAN_MOTION_DDOT
KUZGTU 1 (RS47S),2023-091AV,2026-07-20T06:04:30.381024,15.30535335,.00095351,97.5041,266.0832,347.5595,12.5409,0,U,57217,999,16943,.22364378E-3,.6532E-4,0
SONATE-2,2024-043Q,2026-07-20T04:09:59.736384,15.61100593,.00066043,97.5564,353.6627,90.5198,269.6816,0,U,59112,999,13303,.31734658E-3,.26687E-3,0
MESAT1,2024-125G,2026-07-20T02:20:44.618496,15.66877080,.00107027,97.2242,59.4134,97.3203,262.9274,0,U,60209,999,11471,.43468966E-3,.46122E-3,0
OOV-CUBE (TUBSAT-30),2024-128F,2026-07-20T06:10:15.152448,15.02886018,.00404558,61.9942,110.2494,141.1428,219.2584,0,U,60240,999,11108,.91432524E-4,.1037E-4,0
COLIBRI-S (RS67S),2024-199M,2026-07-20T06:42:10.851264,15.48986533,.00094989,97.2939,75.4579,145.3418,214.8454,0,U,61746,999,14253,.25359276E-3,.13651E-3,0
HORS 3 (RS81S),2024-199U,2026-07-20T06:29:57.392160,15.57151007,.00076937,97.2921,77.8171,140.6644,219.5172,0,U,61753,999,14270,.33210566E-3,.24063E-3,0
HORS 4 (RS82S),2024-199V,2026-07-20T06:00:42.710112,15.62742527,.00074047,97.2861,79.2322,134.2519,225.9349,0,U,61754,999,14280,.38594889E-3,.34655E-3,0
SIT-2086,2024-199AF,2026-07-20T06:56:31.372800,15.55265801,.00085884,97.2881,78.1972,129.8299,230.3712,0,U,61764,999,13957,.3547261E-3,.23986E-3,0
HYPERVIEW 1G (RS66S),2024-199AP,2026-07-20T02:22:19.439040,15.87065401,.00081923,97.2786,82.7337,139.5266,220.6617,0,U,61772,999,13987,.76700142E-3,.202082E-2,0
ALTAIR (RS65S),2024-199AW,2026-07-20T05:50:12.880896,15.37569936,.00126049,97.2985,70.3818,178.1648,181.9646,0,U,61779,999,14219,.16637046E-3,.6066E-4,0
ASRTU-1 (AO-123),2024-199AY,2026-07-20T06:16:34.415616,15.36096647,.00135648,97.2956,69.6366,182.0291,178.0900,0,U,61781,999,13900,.12260789E-3,.4241E-4,0
SAMSAT-IONOSPHERE (RS75S),2024-199BB,2026-07-20T02:43:15.904992,15.60441528,.00097144,97.2885,77.8369,144.9325,215.2574,0,U,61784,999,14269,.38252735E-3,.31449E-3,0
RTU MIREA 1 (RS51S),2024-199BC,2026-07-20T05:57:48.770496,15.64710324,.00097469,97.2870,78.9968,140.0151,220.1828,0,U,61785,999,13963,.43466163E-3,.42257E-3,0
TEVEL2-4,2025-052D,2026-07-20T03:55:51.413664,15.35673230,.00031122,97.3852,97.6288,41.9336,318.2146,0,U,63213,999,7517,.30101799E-3,.10365E-3,0
TEVEL2-5,2025-052E,2026-07-19T14:26:22.858080,15.35471509,.0003191,97.3852,97.0033,45.3967,314.7537,0,U,63214,999,7508,.30684E-3,.10499E-3,0
TEVEL2-6,2025-052F,2026-07-19T16:19:03.344448,15.35437175,.00032656,97.3856,97.0665,47.0245,313.1272,0,U,63215,999,7509,.29179021E-3,.9969E-4,0
TEVEL2-1,2025-052H,2026-07-20T04:14:54.115008,15.34874825,.00038201,97.3829,97.1489,49.4597,310.6978,0,U,63217,999,7515,.30115646E-3,.10109E-3,0
TEVEL2-3,2025-052J,2026-07-20T04:05:20.048352,15.34938148,.00036638,97.3838,97.1684,50.0239,310.1326,0,U,63218,999,7515,.29902402E-3,.10057E-3,0
TEVEL2-2,2025-052K,2026-07-19T23:33:23.831712,15.34881558,.00039296,97.3829,96.9562,49.9318,310.2269,0,U,63219,999,7512,.30205776E-3,.10142E-3,0
OTP-2,2025-052AB,2026-07-19T06:21:02.211552,15.24366519,.00079805,97.3824,92.2179,59.8339,300.3688,0,U,63235,999,7475,.14216323E-3,.3412E-4,0
TEVEL2-9,2025-052AD,2026-07-19T05:15:06.905952,15.32806992,.00073214,97.3893,95.4966,45.4826,314.7014,0,U,63237,999,7493,.27748568E-3,.8721E-4,0
TEVEL2-7,2025-052AE,2026-07-19T11:05:19.326336,15.32492190,.00074123,97.3895,95.6412,45.1189,315.0654,0,U,63238,999,7496,.27686013E-3,.8616E-4,0
TEVEL2-8,2025-052AF,2026-07-19T05:01:32.827872,15.32473641,.00074778,97.3897,95.3655,46.6510,313.5354,0,U,63239,999,7492,.27077917E-3,.842E-4,0
INNOSAT 16 (RS92S7),2025-155C,2026-07-20T04:33:42.775488,15.25770231,.00123567,97.4589,168.2246,73.4920,286.7674,0,U,64878,999,8570,.13021944E-3,.3257E-4,0
GEOSCAN 6 (RS92S6),2025-155D,2026-07-20T04:47:26.454336,15.30712642,.00097677,97.4579,169.8973,68.0571,292.1707,0,U,64879,999,8581,.20678275E-3,.6068E-4,0
GEOSCAN 1 (RS92S1),2025-155E,2026-07-20T06:05:35.626848,15.31365674,.00096772,97.4575,170.1300,68.1043,292.1226,0,U,64880,999,8583,.21759599E-3,.6521E-4,0
239ALFEROV (RS61S),2025-155F,2026-07-20T04:10:39.333504,15.33755004,.00093941,97.4574,170.7268,68.3086,291.9156,0,U,64881,999,8586,.25955123E-3,.8403E-4,0
GEOSCAN 2 (RS92S2),2025-155Q,2026-07-20T05:48:20.799360,15.31622827,.00087383,97.4574,170.2831,58.3874,301.8219,0,U,64890,999,8584,.20599414E-3,.6217E-4,0
GEOSCAN 5 (RS92S5),2025-155R,2026-07-20T05:19:08.560704,15.34059282,.00084578,97.4568,170.9247,73.2386,286.9784,0,U,64891,999,8588,.25755413E-3,.8417E-4,0
GEOSCAN 4 (RS92S4),2025-155S,2026-07-20T04:51:21.879648,15.34229613,.00083555,97.4572,170.9638,73.7092,286.5069,0,U,64892,999,8588,.26841629E-3,.8823E-4,0
